semi_major_axis = 6771
eccentricity = 0.0001
inclination = 98.7
raan = 257.7
argument_of_perigee = 130.5
mean_anomaly = 45.0
